{
  "type": "FeatureCollection",
  "features": [
    {
      "type": "Feature",
      "properties": {
        "norad_id": 31514,
        "name": "FENGYUN 1C DEB",
        "group": "fengyun-1c-debris",
        "lat": -29.062411486167786,
        "lon": -108.24166292862444,
        "alt_km": 859.5375819243345,
        "timestamp": "2025-12-11T20:41:15.363789+00:00",
        "meta_object_name": "FENGYUN 1C DEB",
        "meta_object_id": "1999-025BXD",
        "meta_epoch": "2025-12-10T16:05:53.476512",
        "meta_mean_motion": 14.20962702,
        "meta_eccentricity": 0.00526068,
        "meta_inclination": 99.2467,
        "meta_ra_of_asc_node": 245.3182,
        "meta_arg_of_pericenter": 120.8812,
        "meta_mean_anomaly": 239.7552,
        "meta_ephemeris_type": 0,
        "meta_classification_type": "U",
        "meta_norad_cat_id": 31514,
        "meta_element_set_no": 999,
        "meta_rev_at_epoch": 69295,
        "meta_bstar": 0.0022942237,
        "meta_mean_motion_dot": 4.995e-05,
        "meta_mean_motion_ddot": 0,
        "tle_line1": "1 31514U 99025BXD 25344.67075783  .00004995  00000+0  22942-2 0  9997",
        "tle_line2": "2 31514  99.2467 245.3182 0052606 120.8812 239.7552 14.20962702692956"
      },
      "geometry": {
        "type": "Point",
        "coordinates": [
          -108.24166292862444,
          -29.062411486167786
        ]
      }
    },
    {
      "type": "Feature",
      "properties": {
        "norad_id": 31516,
        "name": "FENGYUN 1C DEB",
        "group": "fengyun-1c-debris",
        "lat": -70.51384239260403,
        "lon": 127.82127520590488,
        "alt_km": 739.9905122422142,
        "timestamp": "2025-12-11T20:41:15.363799+00:00",
        "meta_object_name": "FENGYUN 1C DEB",
        "meta_object_id": "1999-025BXF",
        "meta_epoch": "2025-12-10T13:18:16.054272",
        "meta_mean_motion": 14.25402083,
        "meta_eccentricity": 0.0148319,
        "meta_inclination": 98.8323,
        "meta_ra_of_asc_node": 100.4379,
        "meta_arg_of_pericenter": 244.9092,
        "meta_mean_anomaly": 175.0824,
        "meta_ephemeris_type": 0,
        "meta_classification_type": "U",
        "meta_norad_cat_id": 31516,
        "meta_element_set_no": 999,
        "meta_rev_at_epoch": 96461,
        "meta_bstar": 0.00074351,
        "meta_mean_motion_dot": 1.92e-05,
        "meta_mean_motion_ddot": 0,
        "tle_line1": "1 31516U 99025BXF 25344.55435248  .00001920  00000+0  74351-3 0  9999",
        "tle_line2": "2 31516  98.8323 100.4379 0148319 244.9092 175.0824 14.25402083964613"
      },
      "geometry": {
        "type": "Point",
        "coordinates": [
          127.82127520590488,
          -70.51384239260403
        ]
      }
    },
    {
      "type": "Feature",
      "properties": {
        "norad_id": 31519,
        "name": "FENGYUN 1C DEB",
        "group": "fengyun-1c-debris",
        "lat": 51.31312862060526,
        "lon": -28.42403596377809,
        "alt_km": 845.2761894174128,
        "timestamp": "2025-12-11T20:41:15.363808+00:00",
        "meta_object_name": "FENGYUN 1C DEB",
        "meta_object_id": "1999-025BXJ",
        "meta_epoch": "2025-12-11T05:15:28.850688",
        "meta_mean_motion": 14.23393679,
        "meta_eccentricity": 0.00516578,
        "meta_inclination": 98.5728,
        "meta_ra_of_asc_node": 341.8077,
        "meta_arg_of_pericenter": 247.2921,
        "meta_mean_anomaly": 112.2792,
        "meta_ephemeris_type": 0,
        "meta_classification_type": "U",
        "meta_norad_cat_id": 31519,
        "meta_element_set_no": 999,
        "meta_rev_at_epoch": 64743,
        "meta_bstar": 0.00064828681,
        "meta_mean_motion_dot": 1.448e-05,
        "meta_mean_motion_ddot": 0,
        "tle_line1": "1 31519U 99025BXJ 25345.21908392  .00001448  00000+0  64829-3 0  9995",
        "tle_line2": "2 31519  98.5728 341.8077 0051657 247.2921 112.2792 14.23393679647436"
      },
      "geometry": {
        "type": "Point",
        "coordinates": [
          -28.42403596377809,
          51.31312862060526
        ]
      }
    },
    {
      "type": "Feature",
      "properties": {
        "norad_id": 31522,
        "name": "FENGYUN 1C DEB",
        "group": "fengyun-1c-debris",
        "lat": -8.557475955602062,
        "lon": -177.2133017166507,
        "alt_km": 853.5794814610254,
        "timestamp": "2025-12-11T20:41:15.363818+00:00",
        "meta_object_name": "FENGYUN 1C DEB",
        "meta_object_id": "1999-025BXM",
        "meta_epoch": "2025-12-11T07:49:06.115872",
        "meta_mean_motion": 14.03996513,
        "meta_eccentricity": 0.00431441,
        "meta_inclination": 98.7084,
        "meta_ra_of_asc_node": 3.5944,
        "meta_arg_of_pericenter": 204.4531,
        "meta_mean_anomaly": 155.459,
        "meta_ephemeris_type": 0,
        "meta_classification_type": "U",
        "meta_norad_cat_id": 31522,
        "meta_element_set_no": 999,
        "meta_rev_at_epoch": 94976,
        "meta_bstar": 0.00080193623,
        "meta_mean_motion_dot": 1.236e-05,
        "meta_mean_motion_ddot": 0,
        "tle_line1": "1 31522U 99025BXM 25345.32576523  .00001236  00000+0  80194-3 0  9996",
        "tle_line2": "2 31522  98.7084   3.5944 0043144 204.4531 155.4590 14.03996513949766"
      },
      "geometry": {
        "type": "Point",
        "coordinates": [
          -177.2133017166507,
          -8.557475955602062
        ]
      }
    },
    {
      "type": "Feature",
      "properties": {
        "norad_id": 31523,
        "name": "FENGYUN 1C DEB",
        "group": "fengyun-1c-debris",
        "lat": 1.775075151023876,
        "lon": 33.1514411195818,
        "alt_km": 858.7306298382882,
        "timestamp": "2025-12-11T20:41:15.363828+00:00",
        "meta_object_name": "FENGYUN 1C DEB",
        "meta_object_id": "1999-025BXN",
        "meta_epoch": "2025-12-11T02:08:15.704160",
        "meta_mean_motion": 14.13859885,
        "meta_eccentricity": 0.00393876,
        "meta_inclination": 98.7575,
        "meta_ra_of_asc_node": 32.6681,
        "meta_arg_of_pericenter": 114.6108,
        "meta_mean_anomaly": 275.8809,
        "meta_ephemeris_type": 0,
        "meta_classification_type": "U",
        "meta_norad_cat_id": 31523,
        "meta_element_set_no": 999,
        "meta_rev_at_epoch": 95984,
        "meta_bstar": 3.1346846e-05,
        "meta_mean_motion_dot": 1.7e-07,
        "meta_mean_motion_ddot": 0,
        "tle_line1": "1 31523U 99025BXN 25345.08907065  .00000017  00000+0  31347-4 0  9992",
        "tle_line2": "2 31523  98.7575  32.6681 0039387 114.6108 275.8809 14.13859885959840"
      },
      "geometry": {
        "type": "Point",
        "coordinates": [
          33.1514411195818,
          1.775075151023876
        ]
      }
    },
    {
      "type": "Feature",
      "properties": {
        "norad_id": 31527,
        "name": "FENGYUN 1C DEB",
        "group": "fengyun-1c-debris",
        "lat": 4.870984501616741,
        "lon": 150.792458251788,
        "alt_km": 1005.2299257568038,
        "timestamp": "2025-12-11T20:41:15.363837+00:00",
        "meta_object_name": "FENGYUN 1C DEB",
        "meta_object_id": "1999-025BXS",
        "meta_epoch": "2025-12-07T16:52:20.794080",
        "meta_mean_motion": 13.23396066,
        "meta_eccentricity": 0.04500434,
        "meta_inclination": 98.893,
        "meta_ra_of_asc_node": 147.9974,
        "meta_arg_of_pericenter": 312.678,
        "meta_mean_anomaly": 43.7239,
        "meta_ephemeris_type": 0,
        "meta_classification_type": "U",
        "meta_norad_cat_id": 31527,
        "meta_element_set_no": 999,
        "meta_rev_at_epoch": 90123,
        "meta_bstar": 0.00087176212,
        "meta_mean_motion_dot": 5.94e-06,
        "meta_mean_motion_ddot": 0,
        "tle_line1": "1 31527U 99025BXS 25341.70301845  .00000594  00000+0  87176-3 0  9995",
        "tle_line2": "2 31527  98.8930 147.9974 0450043 312.6780  43.7239 13.23396066901233"
      },
      "geometry": {
        "type": "Point",
        "coordinates": [
          150.792458251788,
          4.870984501616741
        ]
      }
    },
    {
      "type": "Feature",
      "properties": {
        "norad_id": 31531,
        "name": "FENGYUN 1C DEB",
        "group": "fengyun-1c-debris",
        "lat": -80.84909138374286,
        "lon": 96.91055753991368,
        "alt_km": 605.8712817623673,
        "timestamp": "2025-12-11T20:41:15.363849+00:00",
        "meta_object_name": "FENGYUN 1C DEB",
        "meta_object_id": "1999-025BXW",
        "meta_epoch": "2025-12-11T09:22:04.454976",
        "meta_mean_motion": 14.35633544,
        "meta_eccentricity": 0.02440694,
        "meta_inclination": 98.3823,
        "meta_ra_of_asc_node": 30.1986,
        "meta_arg_of_pericenter": 272.6672,
        "meta_mean_anomaly": 84.6601,
        "meta_ephemeris_type": 0,
        "meta_classification_type": "U",
        "meta_norad_cat_id": 31531,
        "meta_element_set_no": 999,
        "meta_rev_at_epoch": 63915,
        "meta_bstar": 0.0015995556,
        "meta_mean_motion_dot": 6.429e-05,
        "meta_mean_motion_ddot": 0,
        "tle_line1": "1 31531U 99025BXW 25345.39032934  .00006429  00000+0  15996-2 0  9992",
        "tle_line2": "2 31531  98.3823  30.1986 0244069 272.6672  84.6601 14.35633544639159"
      },
      "geometry": {
        "type": "Point",
        "coordinates": [
          96.91055753991368,
          -80.84909138374286
        ]
      }
    }
  ]
}